start=new Date('2021-10-10T00:00:00.000Z').valueOf();
sats=[{"LAUNCH_DATE":"2021-05-26","ECCENTRICITY":"0.00014930","OBJECT_NAME":"STARLINK-2742","DECAY_DATE":null,"PERIAPSIS":"372.402","REV_AT_EPOCH":"369","FILE":"3153808","REF_FRAME":"TEME","NORAD_CAT_ID":"48688","TLE_LINE2":"2 48688  53.0408 108.2587 0001493  53.6439 120.1705 15.64941254  3699","MEAN_MOTION_DOT":"-0.00957028","CLASSIFICATION_TYPE":"U","CENTER_NAME":"EARTH","MEAN_ANOMALY":"120.1705","MEAN_MOTION_DDOT":"0.0000000000000","ARG_OF_PERICENTER":"53.6439","RA_OF_ASC_NODE":"108.2587","ELEMENT_SET_NO":"999","OBJECT_TYPE":"PAYLOAD","EPHEMERIS_TYPE":"0","PERIOD":"92.016","MEAN_MOTION":"15.64941254","EPOCH":"2021-10-09T22:00:00.999936","TIME_SYSTEM":"UTC","GP_ID":"186730054","RCS_SIZE":"LARGE","INCLINATION":"53.0408","OBJECT_ID":"2021-044BC","SITE":"AFETR","APOAPSIS":"374.418","COUNTRY_CODE":"US","MEAN_ELEMENT_THEORY":"SGP4","BSTAR":"-0.01057600000000","TLE_LINE1":"1 48688U 21044BC  21282.91667824 -.00957028  00000-0 -10576-1 0  9996","SEMIMAJOR_AXIS":"6751.545"},{"ARG_OF_PERICENTER":"68.4812","MEAN_MOTION_DDOT":"0.0000000000000","MEAN_ANOMALY":"282.0440","CENTER_NAME":"EARTH","CLASSIFICATION_TYPE":"U","MEAN_MOTION_DOT":"-0.00952367","NORAD_CAT_ID":"48689","TLE_LINE2":"2 48689  53.0409 109.2717 0001186  68.4812 282.0440 15.47646346  3706","REF_FRAME":"TEME","FILE":"3153808","REV_AT_EPOCH":"370","PERIAPSIS":"422.809","DECAY_DATE":null,"ECCENTRICITY":"0.00011860","OBJECT_NAME":"STARLINK-2617","LAUNCH_DATE":"2021-05-26","SEMIMAJOR_AXIS":"6801.750","BSTAR":"-0.01979900000000","TLE_LINE1":"1 48689U 21044BD  21282.91667824 -.00952367  00000-0 -19799-1 0  9994","MEAN_ELEMENT_THEORY":"SGP4","COUNTRY_CODE":"US","APOAPSIS":"424.422","SITE":"AFETR","INCLINATION":"53.0409","RCS_SIZE":"LARGE","OBJECT_ID":"2021-044BD","GP_ID":"186730262","TIME_SYSTEM":"UTC","EPOCH":"2021-10-09T22:00:00.999936","MEAN_MOTION":"15.47646346","PERIOD":"93.045","EPHEMERIS_TYPE":"0","OBJECT_TYPE":"PAYLOAD","ELEMENT_SET_NO":"999","RA_OF_ASC_NODE":"109.2717"},{"DECAY_DATE":null,"OBJECT_NAME":"STARLINK-2740","ECCENTRICITY":"0.00015410","LAUNCH_DATE":"2021-05-26","FILE":"3153808","REV_AT_EPOCH":"365","PERIAPSIS":"546.197","CLASSIFICATION_TYPE":"U","MEAN_MOTION_DOT":"0.00024425","REF_FRAME":"TEME","TLE_LINE2":"2 48690  53.0509 117.1425 0001541  56.2819 217.3785 15.06383532  3657","NORAD_CAT_ID":"48690","ARG_OF_PERICENTER":"56.2819","MEAN_MOTION_DDOT":"0.0000000000000","MEAN_ANOMALY":"217.3785","CENTER_NAME":"EARTH","OBJECT_TYPE":"PAYLOAD","EPHEMERIS_TYPE":"0","ELEMENT_SET_NO":"999","RA_OF_ASC_NODE":"117.1425","TIME_SYSTEM":"UTC","EPOCH":"2021-10-09T22:00:00.999936","MEAN_MOTION":"15.06383532","PERIOD":"95.593","APOAPSIS":"548.331","RCS_SIZE":"LARGE","INCLINATION":"53.0509","OBJECT_ID":"2021-044BE","SITE":"AFETR","GP_ID":"186729821","TLE_LINE1":"1 48690U 21044BE  21282.91667824  .00024425  00000-0  16537-2 0  9997","BSTAR":"0.00165370000000","SEMIMAJOR_AXIS":"6925.399","COUNTRY_CODE":"US","MEAN_ELEMENT_THEORY":"SGP4"},{"ARG_OF_PERICENTER":"71.5003","CENTER_NAME":"EARTH","MEAN_ANOMALY":"64.9544","MEAN_MOTION_DDOT":"0.0000000000000","CLASSIFICATION_TYPE":"U","REF_FRAME":"TEME","TLE_LINE2":"2 48691  53.0405 112.6149 0001400  71.5003  64.9544 15.22936215  3665","NORAD_CAT_ID":"48691","MEAN_MOTION_DOT":"-0.00931822","FILE":"3153808","PERIAPSIS":"496.029","REV_AT_EPOCH":"366","ECCENTRICITY":"0.00014000","OBJECT_NAME":"STARLINK-2750","DECAY_DATE":null,"LAUNCH_DATE":"2021-05-26","BSTAR":"-0.04232200000000","TLE_LINE1":"1 48691U 21044BF  21282.91667824 -.00931822  00000-0 -42322-1 0  9998","SEMIMAJOR_AXIS":"6875.127","COUNTRY_CODE":"US","MEAN_ELEMENT_THEORY":"SGP4","APOAPSIS":"497.954","GP_ID":"186730367","RCS_SIZE":"LARGE","INCLINATION":"53.0405","OBJECT_ID":"2021-044BF","SITE":"AFETR","EPOCH":"2021-10-09T22:00:00.999936","TIME_SYSTEM":"UTC","MEAN_MOTION":"15.22936215","PERIOD":"94.554","ELEMENT_SET_NO":"999","EPHEMERIS_TYPE":"0","OBJECT_TYPE":"PAYLOAD","RA_OF_ASC_NODE":"112.6149"},{"LAUNCH_DATE":"2021-05-26","DECAY_DATE":null,"ECCENTRICITY":"0.00014580","OBJECT_NAME":"STARLINK-2752","REV_AT_EPOCH":"367","PERIAPSIS":"491.536","FILE":"3153808","MEAN_MOTION_DOT":"-0.00932168","REF_FRAME":"TEME","TLE_LINE2":"2 48692  53.0461 112.6830 0001458  67.3728 202.7906 15.24417346  3671","NORAD_CAT_ID":"48692","CLASSIFICATION_TYPE":"U","MEAN_MOTION_DDOT":"0.0000000000000","CENTER_NAME":"EARTH","MEAN_ANOMALY":"202.7906","ARG_OF_PERICENTER":"67.3728","RA_OF_ASC_NODE":"112.6830","OBJECT_TYPE":"PAYLOAD","EPHEMERIS_TYPE":"0","ELEMENT_SET_NO":"999","PERIOD":"94.462","MEAN_MOTION":"15.24417346","TIME_SYSTEM":"UTC","EPOCH":"2021-10-09T22:00:00.999936","INCLINATION":"53.0461","RCS_SIZE":"LARGE","OBJECT_ID":"2021-044BG","SITE":"AFETR","GP_ID":"186729715","APOAPSIS":"493.539","COUNTRY_CODE":"US","MEAN_ELEMENT_THEORY":"SGP4","BSTAR":"-0.04050300000000","TLE_LINE1":"1 48692U 21044BG  21282.91667824 -.00932168  00000-0 -40503-1 0  9992","SEMIMAJOR_AXIS":"6870.673"},{"OBJECT_TYPE":"PAYLOAD","EPHEMERIS_TYPE":"0","ELEMENT_SET_NO":"999","RA_OF_ASC_NODE":"117.1344","TIME_SYSTEM":"UTC","EPOCH":"2021-10-09T22:00:00.999936","PERIOD":"95.593","MEAN_MOTION":"15.06386523","APOAPSIS":"548.265","RCS_SIZE":"LARGE","INCLINATION":"53.0525","OBJECT_ID":"2021-044BH","SITE":"AFETR","GP_ID":"186729924","TLE_LINE1":"1 48693U 21044BH  21282.91667824  .00020374  00000-0  13832-2 0  9994","BSTAR":"0.00138320000000","SEMIMAJOR_AXIS":"6925.390","COUNTRY_CODE":"US","MEAN_ELEMENT_THEORY":"SGP4","DECAY_DATE":null,"ECCENTRICITY":"0.00014580","OBJECT_NAME":"STARLINK-2618","LAUNCH_DATE":"2021-05-26","FILE":"3153808","REV_AT_EPOCH":"364","PERIAPSIS":"546.245","CLASSIFICATION_TYPE":"U","MEAN_MOTION_DOT":"0.00020374","REF_FRAME":"TEME","NORAD_CAT_ID":"48693","TLE_LINE2":"2 48693  53.0525 117.1344 0001458  72.8467  25.9328 15.06386523  3646","ARG_OF_PERICENTER":"72.8467","MEAN_MOTION_DDOT":"0.0000000000000","CENTER_NAME":"EARTH","MEAN_ANOMALY":"25.9328"},{"EPHEMERIS_TYPE":"0","OBJECT_TYPE":"PAYLOAD","ELEMENT_SET_NO":"999","RA_OF_ASC_NODE":"122.1513","TIME_SYSTEM":"UTC","EPOCH":"2021-10-09T22:00:00.999936","PERIOD":"95.593","MEAN_MOTION":"15.06381314","APOAPSIS":"548.452","INCLINATION":"53.0507","RCS_SIZE":"LARGE","OBJECT_ID":"2021-044BJ","SITE":"AFETR","GP_ID":"186730161","BSTAR":"0.00113950000000","TLE_LINE1":"1 48694U 21044BJ  21282.91667824  .00016723  00000-0  11395-2 0  9990","SEMIMAJOR_AXIS":"6925.406","COUNTRY_CODE":"US","MEAN_ELEMENT_THEORY":"SGP4","DECAY_DATE":null,"OBJECT_NAME":"STARLINK-2748","ECCENTRICITY":"0.00017060","LAUNCH_DATE":"2021-05-26","FILE":"3153808","REV_AT_EPOCH":"361","PERIAPSIS":"546.089","CLASSIFICATION_TYPE":"U","MEAN_MOTION_DOT":"0.00016723","REF_FRAME":"TEME","TLE_LINE2":"2 48694  53.0507 122.1513 0001706  80.1590 185.9418 15.06381314  3613","NORAD_CAT_ID":"48694","ARG_OF_PERICENTER":"80.1590","MEAN_MOTION_DDOT":"0.0000000000000","MEAN_ANOMALY":"185.9418","CENTER_NAME":"EARTH"},{"APOAPSIS":"548.405","RCS_SIZE":"LARGE","OBJECT_ID":"2021-044BK","INCLINATION":"53.0526","SITE":"AFETR","GP_ID":"186730455","TLE_LINE1":"1 48695U 21044BK  21282.91667824  .00016987  00000-0  11572-2 0  9990","BSTAR":"0.00115720000000","SEMIMAJOR_AXIS":"6925.411","COUNTRY_CODE":"US","MEAN_ELEMENT_THEORY":"SGP4","OBJECT_TYPE":"PAYLOAD","EPHEMERIS_TYPE":"0","ELEMENT_SET_NO":"999","RA_OF_ASC_NODE":"122.1362","TIME_SYSTEM":"UTC","EPOCH":"2021-10-09T22:00:00.999936","MEAN_MOTION":"15.06379710","PERIOD":"95.593","CLASSIFICATION_TYPE":"U","MEAN_MOTION_DOT":"0.00016987","REF_FRAME":"TEME","NORAD_CAT_ID":"48695","TLE_LINE2":"2 48695  53.0526 122.1362 0001630  70.7623 100.4826 15.06379710  3617","ARG_OF_PERICENTER":"70.7623","MEAN_MOTION_DDOT":"0.0000000000000","CENTER_NAME":"EARTH","MEAN_ANOMALY":"100.4826","DECAY_DATE":null,"OBJECT_NAME":"STARLINK-2616","ECCENTRICITY":"0.00016300","LAUNCH_DATE":"2021-05-26","FILE":"3153808","REV_AT_EPOCH":"361","PERIAPSIS":"546.147"},{"CLASSIFICATION_TYPE":"U","NORAD_CAT_ID":"48696","TLE_LINE2":"2 48696  53.0656 127.8609 0001767  66.7646 293.3529 15.06380355 21179","REF_FRAME":"TEME","MEAN_MOTION_DOT":"-0.00000886","ARG_OF_PERICENTER":"66.7646","CENTER_NAME":"EARTH","MEAN_ANOMALY":"293.3529","MEAN_MOTION_DDOT":"0.0000000000000","OBJECT_NAME":"STARLINK-2753","ECCENTRICITY":"0.00017670","DECAY_DATE":null,"LAUNCH_DATE":"2021-05-26","FILE":"3153808","PERIAPSIS":"546.050","REV_AT_EPOCH":"2117","APOAPSIS":"548.497","GP_ID":"186730055","SITE":"AFETR","RCS_SIZE":"LARGE","INCLINATION":"53.0656","OBJECT_ID":"2021-044BL","SEMIMAJOR_AXIS":"6925.409","BSTAR":"-0.00004062700000","TLE_LINE1":"1 48696U 21044BL  21282.74278250 -.00000886  00000-0 -40627-4 0  9991","MEAN_ELEMENT_THEORY":"SGP4","COUNTRY_CODE":"US","ELEMENT_SET_NO":"999","OBJECT_TYPE":"PAYLOAD","EPHEMERIS_TYPE":"0","RA_OF_ASC_NODE":"127.8609","EPOCH":"2021-10-09T17:49:36.408000","TIME_SYSTEM":"UTC","PERIOD":"95.593","MEAN_MOTION":"15.06380355"},{"ELEMENT_SET_NO":"999","EPHEMERIS_TYPE":"0","OBJECT_TYPE":"PAYLOAD","RA_OF_ASC_NODE":"127.7696","EPOCH":"2021-10-09T18:37:22.677888","TIME_SYSTEM":"UTC","MEAN_MOTION":"15.06399527","PERIOD":"95.592","APOAPSIS":"548.951","GP_ID":"186730263","SITE":"AFETR","INCLINATION":"53.0550","RCS_SIZE":"LARGE","OBJECT_ID":"2021-044BM","SEMIMAJOR_AXIS":"6925.350","BSTAR":"0.00006584500000","TLE_LINE1":"1 48697U 21044BM  21282.77595692  .00000699  00000-0  65845-4 0  9996","MEAN_ELEMENT_THEORY":"SGP4","COUNTRY_CODE":"US","ECCENTRICITY":"0.00025070","OBJECT_NAME":"STARLINK-2715","DECAY_DATE":null,"LAUNCH_DATE":"2021-05-26","FILE":"3153808","PERIAPSIS":"545.479","REV_AT_EPOCH":"2117","CLASSIFICATION_TYPE":"U","TLE_LINE2":"2 48697  53.0550 127.7696 0002507  75.2864 284.8402 15.06399527 21174","NORAD_CAT_ID":"48697","REF_FRAME":"TEME","MEAN_MOTION_DOT":"0.00000699","ARG_OF_PERICENTER":"75.2864","MEAN_ANOMALY":"284.8402","CENTER_NAME":"EARTH","MEAN_MOTION_DDOT":"0.0000000000000"}];
